sat_config_name,tle_name,norad_id,horizons_id,epoch_tle,t_obs,delta_t_min,incl_deg,raan_deg,ecc,argp_deg,M_deg,mean_motion_rev_per_day,x_sgp4,y_sgp4,z_sgp4,vx_sgp4,vy_sgp4,vz_sgp4,x_true,y_true,z_true,vx_true,vy_true,vz_true,err_x,err_y,err_z,err_vx,err_vy,err_vz,err_norm,horizons_ok,line1,line2
CHANDRA,CXO,25867,-151,2025-11-29T09:28:09.054336+00:00,2025-11-29T08:48:09.054336+00:00,-40.0,52.7584,123.0489,0.8164697,310.7158,0.2585,0.37803381,10690.613036543748,2762.398622889036,-13829.566445685916,-4.012735325148001,4.786075519283337,1.0511276808014418,10697.440982417278,2741.473214431981,-13827.816906815502,-4.0109607928276505,4.788298398802529,1.0484025965977346,-6.8279458735305525,20.9254084570548,-1.749538870413744,-0.0017745323203506302,-0.002222879519192311,0.0027250842037072065,22.080635185735307,True,1 25867U 99040B   25333.39454924  .00000722  00000+0  00000+0 0  9995,2 25867  52.7584 123.0489 8164697 310.7158   0.2585  0.37803381 16565
CHANDRA,CXO,25867,-151,2025-11-29T09:28:09.054336+00:00,2025-11-29T08:53:09.054336+00:00,-35.0,52.7584,123.0489,0.8164697,310.7158,0.2585,0.37803381,9451.349259252911,4188.073215089118,-13467.67067104517,-4.244178484301417,4.705775393883526,1.3651586825560766,9459.446191536139,4167.064574783624,-13466.988088254022,-4.242401438310191,4.70853304637297,1.3622546659973027,-8.096932283227943,21.008640305493827,-0.6825827911488886,-0.0017770459912265224,-0.0027576524894445953,0.0029040165587739253,22.525301311005173,True,1 25867U 99040B   25333.39454924  .00000722  00000+0  00000+0 0  9995,2 25867  52.7584 123.0489 8164697 310.7158   0.2585  0.37803381 16565
CHANDRA,CXO,25867,-151,2025-11-29T09:28:09.054336+00:00,2025-11-29T08:58:09.054336+00:00,-30.0,52.7584,123.0489,0.8164697,310.7158,0.2585,0.37803381,8142.929398967894,5582.806074048813,-13007.008940608812,-4.472282981724508,4.578565578382119,1.7088430103047836,8152.318004290051,5561.90954796425,-13007.483867177785,-4.470587259298584,4.581944325284899,1.7058164568399388,-9.388605322157673,20.896526084562538,0.4749265689733875,-0.0016957224259241954,-0.003378746902779284,0.0030265534648448167,22.91366988380444,True,1 25867U 99040B   25333.39454924  .00000722  00000+0  00000+0 0  9995,2 25867  52.7584 123.0489 8164697 310.7158   0.2585  0.37803381 16565
CHANDRA,CXO,25867,-151,2025-11-29T09:28:09.054336+00:00,2025-11-29T09:03:09.054336+00:00,-25.0,52.7584,123.0489,0.8164697,310.7158,0.2585,0.37803381,6767.609090258392,6931.318040907901,-12439.221928601854,-4.68832166354342,4.396605627023662,2.0780676203220576,6778.282537818947,6910.757127686118,-12440.922861813946,-4.686816750719259,4.400673518243116,2.075013193843623,-10.67344756055536,20.560913221783267,1.7009332120924228,-0.0015049128241617638,-0.004067891219453834,0.0030544264784344577,23.22857742380334,True,1 25867U 99040B   25333.39454924  .00000722  00000+0  00000+0 0  9995,2 25867  52.7584 123.0489 8164697 310.7158   0.2585  0.37803381 16565
CHANDRA,CXO,25867,-151,2025-11-29T09:28:09.054336+00:00,2025-11-29T09:08:09.054336+00:00,-20.0,52.7584,123.0489,0.8164697,310.7158,0.2585,0.37803381,5330.572718526613,8216.211343887111,-11757.69492786202,-4.881580110483172,4.153879954672726,2.4652151683379864,5342.489034110936,8196.228067425178,-11760.656976080629,-4.880394748493884,4.158664760742597,2.462270446152654,-11.916315584322547,19.9832764619332,2.9620482186091976,-0.001185361989288758,-0.004784806069871195,0.0029447221853322603,23.454288411900027,True,1 25867U 99040B   25333.39454924  .00000722  00000+0  00000+0 0  9995,2 25867  52.7584 123.0489 8164697 310.7158   0.2585  0.37803381 16565
CHANDRA,CXO,25867,-151,2025-11-29T09:28:09.054336+00:00,2025-11-29T09:13:09.054336+00:00,-15.0,52.7584,123.0489,0.8164697,310.7158,0.2585,0.37803381,3840.416006501871,9418.772676246524,-10958.664473348752,-5.040234746442822,3.847940466982893,2.8588995286892156,3853.4941459461547,9399.61324294246,-10962.878188998975,-5.039501015931271,3.853405138517159,2.8562403069308666,-13.078139444283806,19.159433304064805,4.213715650223094,-0.0007337305115511228,-0.005464671534265886,0.002659221758348984,23.577044247275243,True,1 25867U 99040B   25333.39454924  .00000722  00000+0  00000+0 0  9995,2 25867  52.7584 123.0489 8164697 310.7158   0.2585  0.37803381 16565
CHANDRA,CXO,25867,-151,2025-11-29T09:28:09.054336+00:00,2025-11-29T09:18:09.054336+00:00,-10.0,52.7584,123.0489,0.8164697,310.7158,0.2585,0.37803381,2309.257623754726,10520.300821149835,-10042.286122922413,-5.152944062075727,3.4815669229584527,3.2445516459745103,2323.380341583339,10502.194822402227,-10047.690959440408,-5.152772060880927,3.487592045784204,3.242372417508164,-14.122717828613077,18.105998747607373,5.404836517995136,-0.0001720011948007638,-0.0060251228257510725,0.002179228466346217,23.590053143247456,True,1 25867U 99040B   25333.39454924  .00000722  00000+0  00000+0 0  9995,2 25867  52.7584 123.0489 8164697 310.7158   0.2585  0.37803381 16565
CHANDRA,CXO,25867,-151,2025-11-29T09:28:09.054336+00:00,2025-11-29T09:23:09.054336+00:00,-5.0,52.7584,123.0489,0.8164697,310.7158,0.2585,0.37803381,752.2933600028796,11503.836885684155,-9013.369736833318,-5.21090514780445,3.063666608627218,3.606063121469149,767.3150203329286,11486.975984230132,-9019.853794878427,-5.211355056668389,3.0700506991089815,3.6045441400391085,-15.02166033004903,16.860901454023406,6.484058045109123,0.00044990886393936336,-0.006384090481763582,0.0015189814300407,23.494324541173803,True,1 25867U 99040B   25333.39454924  .00000722  00000+0  00000+0 0  9995,2 25867  52.7584 123.0489 8164697 310.7158   0.2585  0.37803381 16565
CHANDRA,CXO,25867,-151,2025-11-29T09:28:09.054336+00:00,2025-11-29T09:28:09.054336+00:00,0.0,52.7584,123.0489,0.8164697,310.7158,0.2585,0.37803381,-813.262725683818,12355.9691150713,-7881.487338106719,-5.209759004724996,2.608785063384671,3.928249804490111,-797.5023338338906,12340.488644537934,-7888.8959446947965,-5.210821593278548,2.6152697912453275,3.9275192198616526,-15.760391849927373,15.480470533366315,7.408606588077419,0.001062588553551791,-0.0064847278606565695,0.0007305846284584305,23.300694641460456,True,1 25867U 99040B   25333.39454924  .00000722  00000+0  00000+0 0  9995,2 25867  52.7584 123.0489 8164697 310.7158   0.2585  0.37803381 16565
CHANDRA,CXO,25867,-151,2025-11-29T09:28:09.054336+00:00,2025-11-29T09:33:09.054336+00:00,5.0,52.7584,123.0489,0.8164697,310.7158,0.2585,0.37803381,-2369.6919208854642,13068.258633225665,-6660.30668581779,-5.15059596653809,2.1350916353378193,4.199400933912546,-2353.3507176488292,13054.227360570563,-6668.4589044977765,-5.152191896927949,2.141407138833584,4.19950696898143,-16.34120323663501,14.03127265510193,8.152218679986618,0.0015959303898593902,-0.006315503495764485,-0.00010603506888351433,23.02976780059114,True,1 25867U 99040B   25333.39454924  .00000722  00000+0  00000+0 0  9995,2 25867  52.7584 123.0489 8164697 310.7158   0.2585  0.37803381 16565
CHANDRA,CXO,25867,-151,2025-11-29T09:28:09.054336+00:00,2025-11-29T09:38:09.054336+00:00,10.0,52.7584,123.0489,0.8164697,310.7158,0.2585,0.37803381,-3900.39108488069,13637.898192306115,-5366.261210511032,-5.03962115557872,1.6614232180996373,4.4130102173988766,-3883.6109918844318,13625.319744208495,-5374.968783777404,-5.041620617750405,1.6673362574175041,4.413915897144358,-16.78009299625819,12.578448097619912,8.707573266371583,0.001999462171684563,-0.005913039317866797,-0.0009056797454816135,22.70706299143111,True,1 25867U 99040B   25333.39454924  .00000722  00000+0  00000+0 0  9995,2 25867  52.7584 123.0489 8164697 310.7158   0.2585  0.37803381 16565
CHANDRA,CXO,25867,-151,2025-11-29T09:28:09.054336+00:00,2025-11-29T09:43:09.054336+00:00,15.0,52.7584,123.0489,0.8164697,310.7158,0.2585,0.37803381,-5391.206341834433,14067.4701125752,-4016.8975477576587,-4.8866465653946864,1.2044177133466691,4.568140140517809,-5374.1029445480435,14056.293263597192,-4025.98367506142,-4.888900227358319,1.2097650839341998,4.569740829850908,-17.103397286389736,11.17684897800791,9.086127303761259,0.002253661963632858,-0.005347370587530653,-0.0016006893330997585,22.36081083488334,True,1 25867U 99040B   25333.39454924  .00000722  00000+0  00000+0 0  9995,2 25867  52.7584 123.0489 8164697 310.7158   0.2585  0.37803381 16565
CHANDRA,CXO,25867,-151,2025-11-29T09:28:09.054336+00:00,2025-11-29T09:48:09.054336+00:00,20.0,52.7584,123.0489,0.8164697,310.7158,0.2585,0.37803381,-6831.217071453413,14363.97235116485,-2629.312891788701,-4.70306070788951,0.776620847444573,4.668513873270204,-6813.877095554653,14354.107373415005,-2638.624345852966,-4.705428500023103,0.7813183482993863,4.670667753062466,-17.339975898759803,9.864977749844911,9.311454064265035,0.0023677921335929497,-0.004697500854813241,-0.0021538797922620034,22.015806298326297,True,1 25867U 99040B   25333.39454924  .00000722  00000+0  00000+0 0  9995,2 25867  52.7584 123.0489 8164697 310.7158   0.2585  0.37803381 16565
CHANDRA,CXO,25867,-151,2025-11-29T09:28:09.054336+00:00,2025-11-29T09:53:09.054336+00:00,25.0,52.7584,123.0489,0.8164697,310.7158,0.2585,0.37803381,-8212.923153172924,14537.467205165423,-1218.986427623671,-4.4999893665308575,0.38587586226875586,4.720907003774781,-8195.405467600023,14528.802439900232,-1228.4005315090658,-4.502358528503402,0.389907826481118,4.723464762084922,-17.51768557290052,8.664765265191818,9.414103885394752,0.0023691619725445534,-0.004031964212362127,-0.002557758310141267,21.69269040245783,True,1 25867U 99040B   25333.39454924  .00000722  00000+0  00000+0 0  9995,2 25867  52.7584 123.0489 8164697 310.7158   0.2585  0.37803381 16565
